KUIPER-00074            
1 64821U 25151F   25272.25002315 -.00037699  00000+0 -21365-2 0  9995
2 64821  51.8907 287.5525 0013729  84.9022 266.1525 15.12353762  4437
KUIPER-00075            
1 64822U 25151G   25272.25121871  .00064660  00000+0  16887-2 0  9994
2 64822  51.8769 285.4568 0006654  45.3315 314.8213 15.38163513 11527
KUIPER-00076            
1 64823U 25151H   25272.25002315 -.01102815  00000+0 -77650-1 0  9998
2 64823  51.8856 288.8320 0007084  74.7424  89.5917 15.07519097  5734
KUIPER-00077            
1 64824U 25151J   25272.25002315 -.00016242  00000+0 -16573-2 0  9994
2 64824  51.8969 292.2361 0006737  35.3132 269.5486 14.89715201  5585
KUIPER-00078            
1 64825U 25151K   25272.25002315 -.00350644  00000+0 -30325-1 0  9992
2 64825  51.8904 290.3790 0009494 101.3107  28.9996 14.98612866  5439
KUIPER-00079            
1 64826U 25151L   25272.25002315 -.01490889  00000+0 -20109+0 0  9997
2 64826  51.8994 294.1745 0012218  67.0525 197.4680 14.82102525  5623
KUIPER-00080            
1 64827U 25151M   25272.25002315 -.00021892  00000+0 -28554-2 0  9996
2 64827  51.8990 294.4612 0005361  88.8320 204.5074 14.79869566  1300
KUIPER-00082            
1 64828U 25151N   25272.25002315 -.00586668  00000+0 -28276-1 0  9994
2 64828  51.8888 286.7619 0007272  56.8665  32.6350 15.20515663  5199
KUIPER-00083            
1 64829U 25151P   25272.25002315 -.00823968  00000+0 -75327-1 0  9991
2 64829  51.8910 290.3582 0011214  65.5276 313.7155 14.97306236  4925
KUIPER-00084            
1 64830U 25151Q   25269.51465107  .00004839  00000+0  66410-3 0  9991
2 64830  51.8999 311.4746 0011614  39.9395 320.2420 14.79860769 10923
KUIPER-00085            
1 64831U 25151R   25272.25002315 -.00690343  00000+0 -34737-1 0  9993
2 64831  51.8905 286.8563 0008836  58.7882 288.7062 15.19025982  5801
KUIPER-00086            
1 64832U 25151S   25272.25002315 -.00791422  00000+0 -87181-1 0  9995
2 64832  51.8962 292.2686 0011373  66.6852  73.0254 14.89883889  2806
KUIPER-00087            
1 64833U 25151T   25272.27210797  .00030281  00000+0  82185-3 0  9991
2 64833  51.8780 285.5892 0008031  57.5617 302.6145 15.37318929 11514
KUIPER-00089            
1 64834U 25151U   25272.25002315 -.00749229  00000+0 -29764-1 0  9998
2 64834  51.8836 286.2598 0006320  54.0765 278.5173 15.27169060  5281
KUIPER-00090            
1 64835U 25151V   25272.23095491  .00059661  00000+0  16169-2 0  9992
2 64835  51.8794 286.0559 0008295  69.4420 290.7456 15.37044462 11513
KUIPER-00091            
1 64836U 25151W   25272.25002315 -.00723723  00000+0 -26411-1 0  9997
2 64836  51.8818 285.8511 0009417  61.8499  80.7870 15.30198999  5063
KUIPER-00092            
1 64837U 25151X   25272.25002315 -.00777845  00000+0 -44898-1 0  9991
2 64837  51.8828 287.6557 0010891  51.3030 323.2023 15.14528793  5266
KUIPER-00093            
1 64838U 25151Y   25272.25002315 -.00948086  00000+0 -68910-1 0  9990
2 64838  51.9005 288.9584 0014191  69.2433 299.6422 15.06291645  5040
KUIPER-00094            
1 64839U 25151Z   25272.19941717  .00031829  00000+0  13025-2 0  9996
2 64839  51.8830 286.5232 0009688  59.8127 300.3812 15.24007460 11501
KUIPER-00081            
1 65132U 25171A   25272.11645533  .00059563  00000+0  16170-2 0  9993
2 65132  51.8752 170.1393 0004503 303.2807  56.7748 15.37014612  8720
KUIPER-00088            
1 65133U 25171B   25270.16527031  .00069481  00000+0  18784-2 0  9992
2 65133  51.8754 179.5657 0004999 287.4481  72.5959 15.37073507  8424
KUIPER-00095            
1 65134U 25171C   25271.74622663  .00093065  00000+0  25589-2 0  9991
2 65134  51.8746 172.1494 0003951 332.4258  27.6518 15.36412004  8660
KUIPER-00096            
1 65135U 25171D   25272.12765958  .00064800  00000+0  17679-2 0  9996
2 65135  51.8752 170.2072 0003917 310.7116  49.3530 15.36825399  8720
KUIPER-00097            
1 65136U 25171E   25272.13777442  .00067592  00000+0  18628-2 0  9995
2 65136  51.8749 170.2734 0004226 325.8946  34.1768 15.36491849  8717
KUIPER-00098            
1 65137U 25171F   25272.11795667  .00066033  00000+0  17897-2 0  9999
2 65137  51.8757 170.1503 0005189 291.6160  68.4274 15.37017158  8065
KUIPER-00099            
1 65138U 25171G   25272.12053596  .00058563  00000+0  15897-2 0  9996
2 65138  51.8761 170.1716 0004688 303.3654  56.6883 15.37024791  8717
KUIPER-00100            
1 65139U 25171H   25272.12725182  .00059058  00000+0  16155-2 0  9992
2 65139  51.8742 170.2034 0004242 308.9751  51.0858 15.36785674  8710
KUIPER-00102            
1 65140U 25171J   25272.13750244  .00068509  00000+0  18928-2 0  9993
2 65140  51.8742 170.2703 0004165 326.2694  33.8027 15.36408694  8718
KUIPER-00103            
1 65141U 25171K   25272.25002315 -.00756139  00000+0 -33684-1 0  9996
2 65141  51.8813 170.2095 0005270 296.2119  97.1557 15.23411668  5717
KUIPER-00104            
1 65142U 25171L   25272.12932874  .00061774  00000+0  16953-2 0  9998
2 65142  51.8768 170.2292 0003985 312.4321  47.6328 15.36665287  8714
KUIPER-00105            
1 65143U 25171M   25272.25002315 -.00433591  00000+0 -14334-1 0  9993
2 65143  51.8780 169.5050 0006144 294.8038  68.9301 15.32621488  5748
KUIPER-00106            
1 65144U 25171N   25272.19856102 -.00109267  00000+0 -48177-2 0  9991
2 65144  51.8797 170.5926 0005498 286.8925  73.1452 15.21700050  8725
KUIPER-00107            
1 65145U 25171P   25272.12560177  .00083564  00000+0  22750-2 0  9997
2 65145  51.8756 170.2040 0004310 309.8052  50.2555 15.36772809  8721
KUIPER-00108            
1 65146U 25171Q   25272.13883525  .00058941  00000+0  16318-2 0  9998
2 65146  51.8753 170.2911 0004402 325.7216  34.3486 15.36411491  8720
KUIPER-00109            
1 65147U 25171R   25271.98952527  .00042076  00000+0  11455-2 0  9999
2 65147  51.8756 170.7842 0004486 296.8242  63.2286 15.37083386  8695
KUIPER-00110            
1 65148U 25171S   25272.25002315 -.00606951  00000+0 -23824-1 0  9994
2 65148  51.8773 169.8663 0005985 314.8791 222.9482 15.27453546  5563
KUIPER-00111            
1 65149U 25171T   25272.25002315 -.00720031  00000+0 -37499-1 0  9994
2 65149  51.8807 170.9844 0004965 315.5918  65.1457 15.17982327  5452
KUIPER-00112            
1 65150U 25171U   25272.13932126  .00069293  00000+0  19141-2 0  9994
2 65150  51.8749 170.2913 0005227 335.4269  24.6468 15.36404648  8711
KUIPER-00114            
1 65151U 25171V   25272.25002315 -.01081277  00000+0 -70993-1 0  9996
2 65151  51.8860 172.0926 0004854 307.7747 171.5190 15.10021411  5714
KUIPER-00115            
1 65152U 25171W   25272.25002315 -.00726001  00000+0 -27328-1 0  9991
2 65152  51.8762 169.7758 0007078 302.4140 301.1190 15.29241066  4903
KUIPER-00116            
1 65153U 25171X   25272.20349918 -.00315064  00000+0 -16538-1 0  9994
2 65153  51.8880 171.3455 0003244 276.5207  83.5401 15.16741377  8708
KUIPER-00118            
1 65154U 25171Y   25272.25002315 -.00722848  00000+0 -45864-1 0  9993
2 65154  51.8823 171.9472 0003696 284.6387 346.1599 15.11049721  5084
KUIPER-00119            
1 65155U 25171Z   25272.11598653  .00066906  00000+0  18039-2 0  9993
2 65155  51.8768 170.1344 0005817 299.3398  60.7007 15.37170582  8718
